{
  "AddressBook": [
    {
      "name": "Poornima",
      "phoneNumber": "+919900990099",
      "city": "Chennai",
      "state": "Tamil Nadu",
      "address": "Fgdt ehhd",
      "id": "hRdK1vJ",
      "zip": "444444"
    },
    {
      "name": "SSS",
      "phoneNumber": "4445556665",
      "city": "Chennai",
      "state": "Telengana",
      "address": "eee ttt ttt",
      "id": "OrwT7dK",
      "zip": "999999"
    },
    {
      "name": "Swathi",
      "phoneNumber": "9900990099",
      "city": "Hyderabad",
      "state": "Telengana",
      "address": "sss ddd fff",
      "id": "Qs7ZFtC",
      "zip": "556677"
    },
    {
      "name": "Swathi",
      "phoneNumber": "9900990099",
      "city": "Hyderabad",
      "state": "Telengana",
      "address": "sss ddd fff",
      "id": "AWYeRpb",
      "zip": "556677"
    },
    {
      "name": "Swathi",
      "phoneNumber": "9900990099",
      "city": "Hyderabad",
      "state": "Telengana",
      "address": "sss ddd fff",
      "id": "2boG_Ck",
      "zip": "556677"
    },
    {
      "name": "Swathi",
      "phoneNumber": "9900990099",
      "city": "Hyderabad",
      "state": "Telengana",
      "address": "sss ddd fff",
      "id": "TIf7W0P",
      "zip": "556677"
    },
    {
      "name": "Swathi",
      "phoneNumber": "9900990099",
      "city": "Hyderabad",
      "state": "Telengana",
      "address": "sss ddd fff",
      "id": "_P37W5g",
      "zip": "556677"
    },
    {
      "name": "Swathi",
      "phoneNumber": "9900990099",
      "city": "Hyderabad",
      "state": "Telengana",
      "address": "sss ddd fff",
      "id": "bnA4Tpn",
      "zip": "556677"
    },
    {
      "name": "Swathi",
      "phoneNumber": "9900990099",
      "city": "Hyderabad",
      "state": "Telengana",
      "address": "sss ddd fff",
      "id": "pkCy5wK",
      "zip": "556677"
    },
    {
      "name": "Swathi",
      "phoneNumber": "9900990099",
      "city": "Hyderabad",
      "state": "Telengana",
      "address": "sss ddd fff",
      "id": "cUlqIA_",
      "zip": "556677"
    }
  ]
}